NOAA 1                  
1 04793U 70106A   24154.09230392 -.00000036  00000+0  47515-4 0  9996
2 04793 101.4462 206.7568 0031480   7.4977  47.1462 12.54028185447293
NOAA 2 (ITOS-D)         
1 06235U 72082A   24154.94540782 -.00000015  00000+0  20136-3 0  9991
2 06235 102.0145 153.7540 0004285 142.9543 244.5497 12.53180452361728
NOAA 3                  
1 06920U 73086A   24154.53475051 -.00000022  00000+0  18134-3 0  9991
2 06920 102.2751 150.3983 0006920  54.5592  57.4932 12.40367892289576
NOAA 4                  
1 07529U 74089A   24154.46356618 -.00000028  00000+0  11740-3 0  9992
2 07529 101.9865 148.5900 0009020 173.5659 306.3760 12.53180333266232
NOAA 5                  
1 09057U 76077A   24154.49894215 -.00000021  00000+0  18594-3 0  9999
2 09057 102.2063 127.9519 0009206 263.4062 210.6198 12.37800961162330
TIROS N                 
1 11060U 78096A   24154.11690338  .00000240  00000+0  13544-3 0  9990
2 11060  98.5326 195.0728 0009522 235.5780 124.4497 14.18818770573071
NOAA 6                  
1 11416U 79057A   24154.53529261  .00000512  00000+0  19711-3 0  9999
2 11416  98.6290 175.7760 0009093 308.0562  51.9802 14.34520544344151
NOAA 7                  
1 12553U 81059A   24154.15772718  .00000078  00000+0  60679-4 0  9999
2 12553  98.8938 213.4660 0010603 234.3908 125.6279 14.17529149219180
NOAA 8                  
1 13923U 83022A   24154.51230663  .00000240  00000+0  11206-3 0  9993
2 13923  98.7295 154.4494 0013784 276.9550  83.0063 14.29247450144678
NOAA 9                  
1 15427U 84123A   24154.96801280  .00000209  00000+0  12818-3 0  9990
2 15427  99.1173 152.0564 0013797 298.7847  80.9437 14.16595293 38036
NOAA 10                 
1 16969U 86073A   24154.50867006  .00000247  00000+0  11583-3 0  9996
2 16969  98.6398 140.5797 0012535  20.7378  92.2433 14.28620119963052
NOAA 11                 
1 19531U 88089A   24154.51439416  .00000106  00000+0  75694-4 0  9992
2 19531  98.5172 117.7273 0009937 278.3327  81.6721 14.15536753842112
NOAA 12                 
1 21263U 91032A   24154.96555597  .00000182  00000+0  93511-4 0  9999
2 21263  98.5569 146.4028 0014607  47.0246 313.2156 14.26313624718856
NOAA 13                 
1 22739U 93050A   24154.84359940  .00000176  00000+0  11619-3 0  9992
2 22739  98.6052 112.8935 0010674  93.9166 266.3227 14.13215226588226
NOAA 14                 
1 23455U 94089A   24154.94244851  .00000124  00000+0  85968-4 0  9998
2 23455  98.4316 151.7385 0010615  66.6340 293.5950 14.14395513517989
NOAA 15                 
1 25338U 98030A   24154.85864363  .00000338  00000+0  15795-3 0  9993
2 25338  98.5689 182.2844 0010459  13.8877 346.2589 14.26592005355149
NOAA 16                 
1 26536U 00055A   24154.78516983  .00000141  00000+0  96905-4 0  9993
2 26536  98.5319 195.0408 0009254 277.9572  82.0551 14.13582545518547
NOAA 17                 
1 27453U 02032A   24154.96126588  .00000280  00000+0  13692-3 0  9992
2 27453  98.7624 105.5603 0011667 356.0472   4.0614 14.25583526140929
NOAA 18                 
1 28654U 05018A   24154.90660221  .00000298  00000+0  18244-3 0  9991
2 28654  98.8743 231.9897 0015368 103.7172 256.5712 14.13221005981150
NOAA 19                 
1 33591U 09005A   24154.78514668  .00000277  00000+0  17267-3 0  9997
2 33591  99.0477 210.4314 0013238 337.0345  23.0233 14.13017435789338
SUOMI NPP               
1 37849U 11061A   24154.87529051  .00000119  00000+0  77242-4 0  9999
2 37849  98.7219  93.0701 0000905  57.6859 302.4405 14.19577487652849
NOAA 20 (JPSS-1)        
1 43013U 17073A   24154.89310134  .00000102  00000+0  68952-4 0  9990
2 43013  98.7062  93.0539 0000243 120.8904 239.2296 14.19591545338873
NOAA 21 (JPSS-2)        
1 54234U 22150A   24154.85708890  .00000141  00000+0  87547-4 0  9999
2 54234  98.7516  92.9193 0001275 122.7124 237.4175 14.19520428 80949
